     2              NAVIGATION DATA                         RINEX VERSION / TYPE
CCRINEXN V1.6.0 UX  CDDIS               30-OCT-03 02:48     PGM / RUN BY / DATE 
IGS BROADCAST EPHEMERIS FILE                                COMMENT             
    0.3446D-07  0.7451D-08 -0.1192D-06  0.5960D-07          ION ALPHA           
    0.1413D+06 -0.3277D+05 -0.1311D+06 -0.6554D+05          ION BETA            
    0.931322574615D-08 0.168753899743D-13   147456     1242 DELTA-UTC: A0,A1,T,W
    13                                                      LEAP SECONDS        
                                                            END OF HEADER       
 9 03 10 29  2  0  0.0-0.140112824738D-04-0.181898940355D-11 0.000000000000D+00
    0.160000000000D+02-0.179062500000D+02 0.482055793844D-08 0.162123852922D+01
   -0.104121863842D-05 0.150426073233D-01 0.856071710587D-05 0.515360994720D+04
    0.266400000000D+06-0.324100255966D-06 0.148355994699D+01-0.707805156708D-07
    0.949417129846D+00 0.211468750000D+03 0.997994379432D+00-0.814569644381D-08
    0.552880172536D-09 0.000000000000D+00 0.124200000000D+04 0.000000000000D+00
    0.200000000000D+01 0.000000000000D+00-0.558793544769D-08 0.528000000000D+03
    0.259200000000D+06 0.000000000000D+00 0.000000000000D+00 0.000000000000D+00
10 03 10 29  2  0  0.0 0.334796495736D-04 0.568434188608D-12 0.000000000000D+00
    0.870000000000D+02-0.743125000000D+02 0.420160358508D-08-0.119829354016D+01
   -0.379048287869D-05 0.558287161402D-02 0.183284282684D-05 0.515359788132D+04
    0.266400000000D+06 0.149011611938D-07-0.567825160037D+00-0.633299350738D-07
    0.980986723520D+00 0.355000000000D+03 0.232541600165D+00-0.824534345165D-08
   -0.216080429189D-09 0.000000000000D+00 0.124200000000D+04 0.100000000000D+01
    0.400000000000D+01 0.000000000000D+00-0.232830643654D-08 0.178176000000D+06
    0.259218000000D+06 0.000000000000D+00 0.000000000000D+00 0.000000000000D+00
11 03 10 29  2  0  0.0 0.744061544538D-04 0.216004991671D-11 0.000000000000D+00
    0.233000000000D+03 0.121031250000D+03 0.570880942519D-08 0.268815123976D+01
    0.639073550701D-05 0.222677097190D-02 0.418350100517D-05 0.515370764542D+04
    0.266400000000D+06-0.968575477600D-07-0.171819767470D+01 0.596046447754D-07
    0.909853004858D+00 0.269750000000D+03-0.155727628075D+00-0.873822081360D-08
    0.156435087106D-09 0.100000000000D+01 0.124200000000D+04 0.000000000000D+00
    0.240000000000D+01 0.000000000000D+00-0.116415321827D-07 0.233000000000D+03
    0.259218000000D+06 0.400000000000D+01 0.000000000000D+00 0.000000000000D+00
13 03 10 29  2  0  0.0-0.317436642945D-04-0.113686837722D-12 0.000000000000D+00
    0.128000000000D+03-0.980000000000D+02 0.383587428487D-08-0.997766232969D+00
   -0.522099435329D-05 0.196820765268D-02 0.101253390312D-04 0.515377937126D+04
    0.266400000000D+06 0.614672899246D-07 0.474041939487D+00 0.353902578354D-07
    0.980725276653D+00 0.195500000000D+03 0.721191818271D+00-0.765710428396D-08
    0.600024960273D-10 0.100000000000D+01 0.124200000000D+04 0.000000000000D+00
    0.340000000000D+01 0.000000000000D+00-0.111758708954D-07 0.384000000000D+03
    0.265668000000D+06 0.400000000000D+01 0.000000000000D+00 0.000000000000D+00
14 03 10 29  2  0  0.0-0.193421728909D-04 0.341060513165D-12 0.000000000000D+00
    0.172000000000D+03-0.111156250000D+03 0.386516108009D-08-0.293698167056D+01
   -0.568665564060D-05 0.134063069709D-02 0.921823084354D-05 0.515374727249D+04
    0.266400000000D+06-0.558793544769D-08 0.465896088316D+00-0.931322574615D-07
    0.975225006036D+00 0.213750000000D+03-0.133006436471D+01-0.760138796352D-08
    0.589310267252D-10 0.100000000000D+01 0.124200000000D+04 0.000000000000D+00
    0.340000000000D+01 0.000000000000D+00-0.102445483208D-07 0.428000000000D+03
    0.259218000000D+06 0.400000000000D+01 0.000000000000D+00 0.000000000000D+00
15 03 10 29  2  0  0.0 0.178573653102D-03 0.500222085975D-11 0.000000000000D+00
    0.160000000000D+02 0.122968750000D+03 0.437411085130D-08 0.188593920736D+01
    0.631064176559D-05 0.847486383282D-02 0.370107591152D-05 0.515376519585D+04
    0.266400000000D+06 0.875443220139D-07-0.155068730796D+01-0.521540641785D-07
    0.969503840641D+00 0.306031250000D+03 0.215664775797D+01-0.811176636972D-08
    0.489306095641D-10 0.100000000000D+01 0.124200000000D+04 0.000000000000D+00
    0.485000000000D+01 0.000000000000D+00-0.232830643654D-08 0.528000000000D+03
    0.259218000000D+06 0.400000000000D+01 0.000000000000D+00 0.000000000000D+00
17 03 10 29  2  0  0.0 0.112903770059D-03-0.343334249919D-10 0.000000000000D+00
    0.184000000000D+03 0.134218750000D+03 0.443482758551D-08 0.223508952779D+01
    0.680424273014D-05 0.159044301836D-01 0.370107591152D-05 0.515305678940D+04
    0.266400000000D+06-0.370666384697D-06-0.150931216500D+01 0.745058059692D-07
    0.971558921626D+00 0.316093750000D+03-0.284618480855D+01-0.819176979152D-08
    0.140362989539D-09 0.000000000000D+00 0.124200000000D+04 0.100000000000D+01
    0.200000000000D+01 0.000000000000D+00-0.139698386192D-08 0.376832000000D+06
    0.259218000000D+06 0.000000000000D+00 0.000000000000D+00 0.000000000000D+00
20 03 10 29  2  0  0.0-0.206155236810D-03 0.136424205266D-11 0.000000000000D+00
    0.143000000000D+03-0.599062500000D+02 0.457304771828D-08-0.401856008219D+00
   -0.317208468914D-05 0.200309464708D-02 0.201351940632D-05 0.515379085541D+04
    0.266400000000D+06 0.465661287308D-07-0.584227545297D+00-0.335276126862D-07
    0.964641229682D+00 0.340250000000D+03 0.173529577113D+01-0.842427905212D-08
   -0.228580945838D-09 0.100000000000D+01 0.124200000000D+04 0.000000000000D+00
    0.240000000000D+01 0.000000000000D+00-0.698491930962D-08 0.399000000000D+03
    0.259218000000D+06 0.400000000000D+01 0.000000000000D+00 0.000000000000D+00
21 03 10 29  2  0  0.0 0.603864900768D-04 0.329691829393D-11 0.000000000000D+00
    0.165000000000D+03 0.133406250000D+03 0.472233956154D-08 0.184242134146D+01
    0.702403485775D-05 0.802632875275D-02 0.432506203651D-05 0.515373161316D+04
    0.266400000000D+06 0.109896063805D-06-0.157569603589D+01 0.968575477600D-07
    0.956150406337D+00 0.291343750000D+03 0.292833596515D+01-0.839249243814D-08
    0.546451333320D-10 0.000000000000D+00 0.124200000000D+04 0.000000000000D+00
    0.200000000000D+01 0.000000000000D+00-0.121071934700D-07 0.165000000000D+03
    0.259200000000D+06 0.000000000000D+00 0.000000000000D+00 0.000000000000D+00
23 03 10 29  2  0  0.0 0.396878458560D-04 0.909494701773D-12 0.000000000000D+00
    0.153000000000D+03-0.632812500000D+02 0.409945632995D-08-0.165858602318D+01
   -0.308826565742D-05 0.164736229926D-01 0.204145908356D-05 0.515385967827D+04
    0.266400000000D+06 0.206753611565D-06-0.516888128500D+00 0.419095158577D-06
    0.984655793746D+00 0.351093750000D+03-0.164561156365D+01-0.803533506399D-08
   -0.298583852087D-09 0.100000000000D+01 0.124200000000D+04 0.000000000000D+00
    0.240000000000D+01 0.000000000000D+00-0.279396772385D-08 0.153000000000D+03
    0.259218000000D+06 0.400000000000D+01 0.000000000000D+00 0.000000000000D+00
24 03 10 29  2  0  0.0 0.709127634764D-04 0.284217094304D-11 0.000000000000D+00
    0.159000000000D+03 0.123500000000D+03 0.428910722996D-08 0.163839034693D+01
    0.617094337940D-05 0.970863923430D-02 0.336393713951D-05 0.515378935432D+04
    0.266400000000D+06 0.135973095894D-06-0.157713799328D+01-0.244006514549D-06
    0.972822561005D+00 0.319062500000D+03-0.145867057562D+01-0.810676625078D-08
    0.147148986489D-09 0.000000000000D+00 0.124200000000D+04 0.100000000000D+01
    0.200000000000D+01 0.000000000000D+00-0.139698386192D-08 0.325632000000D+06
    0.259218000000D+06 0.000000000000D+00 0.000000000000D+00 0.000000000000D+00
25 03 10 29  2  0  0.0 0.543217174709D-04 0.682121026330D-12 0.000000000000D+00
    0.228000000000D+03-0.172500000000D+02 0.478555639560D-08 0.233541572698D+01
   -0.867992639542D-06 0.106564828893D-01 0.824034214020D-05 0.515379302406D+04
    0.266400000000D+06 0.189989805222D-06 0.143527845117D+01-0.987201929092D-07
    0.942451637054D+00 0.206500000000D+03-0.166931294314D+01-0.786747023085D-08
    0.531450716768D-09 0.100000000000D+01 0.124200000000D+04 0.000000000000D+00
    0.340000000000D+01 0.000000000000D+00-0.745058059692D-08 0.484000000000D+03
    0.260928000000D+06 0.400000000000D+01 0.000000000000D+00 0.000000000000D+00
26 03 10 29  2  0  0.0 0.505544710904D-03-0.522959453519D-11 0.000000000000D+00
    0.198000000000D+03-0.136156250000D+03 0.372658379860D-08-0.290166668037D+01
   -0.695511698723D-05 0.147304970305D-01 0.102240592241D-04 0.515361093140D+04
    0.266400000000D+06-0.707805156708D-07 0.477213943796D+00-0.176951289177D-06
    0.979132581648D+00 0.189687500000D+03 0.531735861939D+00-0.746566811790D-08
    0.143577409147D-09 0.100000000000D+01 0.124200000000D+04 0.000000000000D+00
    0.280000000000D+01 0.000000000000D+00-0.651925802231D-08 0.710000000000D+03
    0.259218000000D+06 0.400000000000D+01 0.000000000000D+00 0.000000000000D+00
27 03 10 29  2  0  0.0 0.763098243624D-03 0.256932253251D-10 0.000000000000D+00
    0.143000000000D+03 0.121875000000D+01 0.496377818986D-08 0.825449267481D+00
    0.232830643654D-06 0.175111074932D-01 0.857189297676D-05 0.515360511589D+04
    0.266400000000D+06-0.312924385071D-06 0.146264019944D+01 0.949949026108D-07
    0.946971718910D+00 0.211406250000D+03-0.224866633505D+01-0.834177603988D-08
    0.358943522867D-09 0.000000000000D+00 0.124200000000D+04 0.000000000000D+00
    0.200000000000D+01 0.000000000000D+00-0.419095158577D-08 0.143000000000D+03
    0.259200000000D+06 0.000000000000D+00 0.000000000000D+00 0.000000000000D+00
